{
  "type": "FeatureCollection",
  "features": [
    {
      "type": "Feature",
      "properties": {
        "norad_id": 15362,
        "name": "NOVA 3",
        "group": "nnss",
        "lat": -61.35642168048535,
        "lon": -99.71020086537345,
        "alt_km": 1182.5710340792684,
        "timestamp": "2025-12-10T23:33:13.087156+00:00",
        "meta_object_name": "NOVA 3",
        "meta_object_id": "1984-110A",
        "meta_epoch": "2025-12-10T13:18:53.723808",
        "meta_mean_motion": 13.23044283,
        "meta_eccentricity": 0.00306501,
        "meta_inclination": 90.1224,
        "meta_ra_of_asc_node": 80.509,
        "meta_arg_of_pericenter": 338.1443,
        "meta_mean_anomaly": 32.7388,
        "meta_ephemeris_type": 0,
        "meta_classification_type": "U",
        "meta_norad_cat_id": 15362,
        "meta_element_set_no": 999,
        "meta_rev_at_epoch": 98670,
        "meta_bstar": 0.00023445638,
        "meta_mean_motion_dot": 1.07e-06,
        "meta_mean_motion_ddot": 0,
        "tle_line1": "1 15362U 84110A   25344.55478847  .00000107  00000+0  23446-3 0  9996",
        "tle_line2": "2 15362  90.1224  80.5090 0030650 338.1443  32.7388 13.23044283986700"
      },
      "geometry": {
        "type": "Point",
        "coordinates": [
          -99.71020086537345,
          -61.35642168048535
        ]
      }
    },
    {
      "type": "Feature",
      "properties": {
        "norad_id": 15935,
        "name": "OSCAR 30",
        "group": "nnss",
        "lat": -61.00817023076193,
        "lon": -80.4795220505208,
        "alt_km": 1243.0881944417451,
        "timestamp": "2025-12-10T23:33:13.087166+00:00",
        "meta_object_name": "OSCAR 30",
        "meta_object_id": "1985-066A",
        "meta_epoch": "2025-12-10T13:26:15.825696",
        "meta_mean_motion": 13.3607789,
        "meta_eccentricity": 0.01694205,
        "meta_inclination": 90.1649,
        "meta_ra_of_asc_node": 99.8114,
        "meta_arg_of_pericenter": 89.9877,
        "meta_mean_anomaly": 283.8879,
        "meta_ephemeris_type": 0,
        "meta_classification_type": "U",
        "meta_norad_cat_id": 15935,
        "meta_element_set_no": 999,
        "meta_rev_at_epoch": 96424,
        "meta_bstar": 0.00026119835,
        "meta_mean_motion_dot": 1.55e-06,
        "meta_mean_motion_ddot": 0,
        "tle_line1": "1 15935U 85066A   25344.55990539  .00000155  00000+0  26120-3 0  9995",
        "tle_line2": "2 15935  90.1649  99.8114 0169420  89.9877 283.8879 13.36077890964240"
      },
      "geometry": {
        "type": "Point",
        "coordinates": [
          -80.4795220505208,
          -61.00817023076193
        ]
      }
    },
    {
      "type": "Feature",
      "properties": {
        "norad_id": 15936,
        "name": "OSCAR 24",
        "group": "nnss",
        "lat": -45.07466638368988,
        "lon": 92.45377757669606,
        "alt_km": 1228.6422212363386,
        "timestamp": "2025-12-10T23:33:13.087175+00:00",
        "meta_object_name": "OSCAR 24",
        "meta_object_id": "1985-066B",
        "meta_epoch": "2025-12-10T13:03:08.404992",
        "meta_mean_motion": 13.35935362,
        "meta_eccentricity": 0.0170487,
        "meta_inclination": 90.1789,
        "meta_ra_of_asc_node": 92.2666,
        "meta_arg_of_pericenter": 96.4685,
        "meta_mean_anomaly": 276.6807,
        "meta_ephemeris_type": 0,
        "meta_classification_type": "U",
        "meta_norad_cat_id": 15936,
        "meta_element_set_no": 999,
        "meta_rev_at_epoch": 96614,
        "meta_bstar": 0.00022344128,
        "meta_mean_motion_dot": 1.34e-06,
        "meta_mean_motion_ddot": 0,
        "tle_line1": "1 15936U 85066B   25344.54384728  .00000134  00000+0  22344-3 0  9993",
        "tle_line2": "2 15936  90.1789  92.2666 0170487  96.4685 276.6807 13.35935362966148"
      },
      "geometry": {
        "type": "Point",
        "coordinates": [
          92.45377757669606,
          -45.07466638368988
        ]
      }
    },
    {
      "type": "Feature",
      "properties": {
        "norad_id": 17070,
        "name": "POLAR BEAR",
        "group": "nnss",
        "lat": -84.09157915634837,
        "lon": 7.544060293586208,
        "alt_km": 1011.1715961439186,
        "timestamp": "2025-12-10T23:33:13.087185+00:00",
        "meta_object_name": "POLAR BEAR",
        "meta_object_id": "1986-088A",
        "meta_epoch": "2025-12-10T12:05:37.086144",
        "meta_mean_motion": 13.75250149,
        "meta_eccentricity": 0.0040839,
        "meta_inclination": 89.6176,
        "meta_ra_of_asc_node": 183.8633,
        "meta_arg_of_pericenter": 125.7228,
        "meta_mean_anomaly": 295.451,
        "meta_ephemeris_type": 0,
        "meta_classification_type": "U",
        "meta_norad_cat_id": 17070,
        "meta_element_set_no": 999,
        "meta_rev_at_epoch": 95948,
        "meta_bstar": 0.00014787852,
        "meta_mean_motion_dot": 1.54e-06,
        "meta_mean_motion_ddot": 0,
        "tle_line1": "1 17070U 86088A   25344.50390146  .00000154  00000+0  14788-3 0  9991",
        "tle_line2": "2 17070  89.6176 183.8633 0040839 125.7228 295.4510 13.75250149959485"
      },
      "geometry": {
        "type": "Point",
        "coordinates": [
          7.544060293586208,
          -84.09157915634837
        ]
      }
    },
    {
      "type": "Feature",
      "properties": {
        "norad_id": 18361,
        "name": "OSCAR 27",
        "group": "nnss",
        "lat": -6.106359698392902,
        "lon": 79.2466019850461,
        "alt_km": 1138.377034387533,
        "timestamp": "2025-12-10T23:33:13.087195+00:00",
        "meta_object_name": "OSCAR 27",
        "meta_object_id": "1987-080A",
        "meta_epoch": "2025-12-10T12:52:14.922048",
        "meta_mean_motion": 13.44906041,
        "meta_eccentricity": 0.01027472,
        "meta_inclination": 90.3742,
        "meta_ra_of_asc_node": 79.1899,
        "meta_arg_of_pericenter": 230.1795,
        "meta_mean_anomaly": 129.0276,
        "meta_ephemeris_type": 0,
        "meta_classification_type": "U",
        "meta_norad_cat_id": 18361,
        "meta_element_set_no": 999,
        "meta_rev_at_epoch": 87527,
        "meta_bstar": 0.0002684905,
        "meta_mean_motion_dot": 1.7e-06,
        "meta_mean_motion_ddot": 0,
        "tle_line1": "1 18361U 87080A   25344.53628382  .00000170  00000+0  26849-3 0  9996",
        "tle_line2": "2 18361  90.3742  79.1899 0102747 230.1795 129.0276 13.44906041875275"
      },
      "geometry": {
        "type": "Point",
        "coordinates": [
          79.2466019850461,
          -6.106359698392902
        ]
      }
    },
    {
      "type": "Feature",
      "properties": {
        "norad_id": 18362,
        "name": "OSCAR 29",
        "group": "nnss",
        "lat": 9.085931052859015,
        "lon": 79.60523634359905,
        "alt_km": 1128.8947833929224,
        "timestamp": "2025-12-10T23:33:13.087204+00:00",
        "meta_object_name": "OSCAR 29",
        "meta_object_id": "1987-080B",
        "meta_epoch": "2025-12-10T07:44:04.763040",
        "meta_mean_motion": 13.44447807,
        "meta_eccentricity": 0.0103811,
        "meta_inclination": 90.3754,
        "meta_ra_of_asc_node": 79.6406,
        "meta_arg_of_pericenter": 254.1865,
        "meta_mean_anomaly": 165.6643,
        "meta_ephemeris_type": 0,
        "meta_classification_type": "U",
        "meta_norad_cat_id": 18362,
        "meta_element_set_no": 999,
        "meta_rev_at_epoch": 87477,
        "meta_bstar": 0.0002499,
        "meta_mean_motion_dot": 1.57e-06,
        "meta_mean_motion_ddot": 0,
        "tle_line1": "1 18362U 87080B   25344.32227735  .00000157  00000+0  24990-3 0  9991",
        "tle_line2": "2 18362  90.3754  79.6406 0103811 254.1865 165.6643 13.44447807874773"
      },
      "geometry": {
        "type": "Point",
        "coordinates": [
          79.60523634359905,
          9.085931052859015
        ]
      }
    },
    {
      "type": "Feature",
      "properties": {
        "norad_id": 19070,
        "name": "OSCAR 23",
        "group": "nnss",
        "lat": -70.82975826284229,
        "lon": -164.586874098779,
        "alt_km": 1102.1959305687515,
        "timestamp": "2025-12-10T23:33:13.087213+00:00",
        "meta_object_name": "OSCAR 23",
        "meta_object_id": "1988-033A",
        "meta_epoch": "2025-12-10T12:05:29.983200",
        "meta_mean_motion": 13.27786635,
        "meta_eccentricity": 0.01893447,
        "meta_inclination": 90.3214,
        "meta_ra_of_asc_node": 16.3233,
        "meta_arg_of_pericenter": 186.1416,
        "meta_mean_anomaly": 301.1499,
        "meta_ephemeris_type": 0,
        "meta_classification_type": "U",
        "meta_norad_cat_id": 19070,
        "meta_element_set_no": 999,
        "meta_rev_at_epoch": 82223,
        "meta_bstar": 0.00020510801,
        "meta_mean_motion_dot": 1.1e-06,
        "meta_mean_motion_ddot": 0,
        "tle_line1": "1 19070U 88033A   25344.50381925  .00000110  00000+0  20511-3 0  9993",
        "tle_line2": "2 19070  90.3214  16.3233 0189344 186.1416 301.1499 13.27786635822234"
      },
      "geometry": {
        "type": "Point",
        "coordinates": [
          -164.586874098779,
          -70.82975826284229
        ]
      }
    }
  ]
}